{
  "norad_id": 61865,
  "name": "STARLINK-32401",
  "history": [
    {
      "epoch": "2026-03-28T14:05:09.512160Z",
      "apogee_km": 483.66888345910775,
      "perigee_km": 482.1814051862184,
      "latitude_deg": 2.2390245135528315e-05,
      "longitude_deg": 94.32006360966639,
      "height_km": 482.65437457494556,
      "semi_major_axis_km": 6861.062144322663,
      "eccentricity": 0.0001084,
      "inclination_deg": 43.0023,
      "raan_deg": 131.6149,
      "arg_perigee_deg": 273.6585,
      "mean_anomaly_deg": 86.4143,
      "mean_motion_rev_day": 15.27621396
    }
  ]
}