{"fetched_at":"2026-03-29T16:36:15Z","count":15609,"tles":[{"name":"STARLINK-32401","line1":"1 61865U 24202W   26087.58691565 -.00009389  00000+0 -33169-3 0  9999","line2":"2 61865  43.0023 131.6149 0001084 273.6585  86.4143 15.27621396 78221","category":"Starlink"}]}